[{"OBJECT_NAME":"TOMORROW-S2","OBJECT_ID":"2024-149T","EPOCH":"2026-03-09T18:02:42.746496","MEAN_MOTION":15.30674935,"ECCENTRICITY":0.0001648,"INCLINATION":97.3857,"RA_OF_ASC_NODE":150.0385,"ARG_OF_PERICENTER":234.3331,"MEAN_ANOMALY":125.7757,"EPHEMERIS_TYPE":0,"CLASSIFICATION_TYPE":"U","NORAD_CAT_ID":60485,"ELEMENT_SET_NO":999,"REV_AT_EPOCH":8686,"BSTAR":0.00027683033,"MEAN_MOTION_DOT":8.133e-5,"MEAN_MOTION_DDOT":0},{"OBJECT_NAME":"STARLINK-35311","OBJECT_ID":"2025-232AD","EPOCH":"2026-03-09T19:37:39.892512","MEAN_MOTION":15.30200109,"ECCENTRICITY":0.00017902,"INCLINATION":53.1599,"RA_OF_ASC_NODE":103.4047,"ARG_OF_PERICENTER":89.3413,"MEAN_ANOMALY":270.7793,"EPHEMERIS_TYPE":0,"CLASSIFICATION_TYPE":"U","NORAD_CAT_ID":66032,"ELEMENT_SET_NO":999,"REV_AT_EPOCH":2345,"BSTAR":0.00060910164,"MEAN_MOTION_DOT":0.00017724,"MEAN_MOTION_DDOT":0}]
